O3B FM5                 
1 39188U 13031A   22330.78834480 -.00000014  00000+0  00000+0 0  9993
2 39188   0.0659  10.8999 0002795 239.7939 109.2813  5.00115283172078
O3B FM4                 
1 39189U 13031B   22330.24462834 -.00000013  00000+0  00000+0 0  9994
2 39189   0.0432 353.3529 0002737 256.2678 110.3557  5.00115824172071
O3B FM2                 
1 39190U 13031C   22330.73589101 -.00000014  00000+0  00000+0 0  9998
2 39190   0.0406 347.3334 0002740 261.5855 111.0572  5.00115060172157
O3B PFM                 
1 39191U 13031D   22330.76213757 -.00000014  00000+0  00000+0 0  9993
2 39191   0.0574   8.1923 0002735 237.9733 113.8111  5.00115691172166
O3B FM3                 
1 40079U 14038A   22330.61706188 -.00000013  00000+0  00000+0 0  9996
2 40079   0.0494 359.3344 0004554 221.0530 139.5843  5.00115291148078
O3B FM7                 
1 40080U 14038B   22330.96290944 -.00000014  00000+0  00000+0 0  9995
2 40080   0.0492 354.1514 0002612 293.1227  72.7025  5.00115474153211
O3B FM6                 
1 40081U 14038C   22329.98985013 -.00000012  00000+0  00000+0 0  9992
2 40081   0.0484 359.4040 0002796 246.3361 114.2368  5.00115260152828
O3B FM8                 
1 40082U 14038D   22330.04372964 -.00000012  00000+0  00000+0 0  9997
2 40082   0.0453 358.0629 0002670 244.9656 116.9503  5.00115634152954
O3B FM10                
1 40348U 14083A   22330.26974952 -.00000013  00000+0  00000+0 0  9992
2 40348   0.0523   8.7750 0002713 237.1218 114.0806  5.00115098144902
O3B FM11                
1 40349U 14083B   22330.08328220 -.00000012  00000+0  00000+0 0  9993
2 40349   0.0558   5.3455 0002906 254.4460 100.1817  5.00115334144924
O3B FM12                
1 40350U 14083C   22330.71017887 -.00000014  00000+0  00000+0 0  9991
2 40350   0.0547   5.1582 0002896 242.6139 112.2026  5.00115208144963
O3B FM9                 
1 40351U 14083D   22330.53705924 -.00000013  00000+0  00000+0 0  9997
2 40351   0.0568   4.7858 0002713 242.6729 112.5182  5.00116054145104
DIAMOND RED             
1 42783U 17036U   22330.57983447  .00010023  00000+0  34061-3 0  9990
2 42783  97.1800   5.9243 0011517 108.9649 251.2841 15.30592159301711
DIAMOND GREEN           
1 42785U 17036W   22330.84031115  .00010549  00000+0  35724-3 0  9998
2 42785  97.1803   6.2453 0011300 109.8176 250.4285 15.30693513301829
DIAMOND BLUE            
1 42786U 17036X   22330.83996154  .00010131  00000+0  34357-3 0  9999
2 42786  97.1803   6.2360 0011392 109.6000 250.6472 15.30659888301829
LEO VANTAGE 1           
1 43113U 18004C   22330.73785012  .00001629  00000+0  13452-3 0  9993
2 43113  99.2437  68.1411 0399482  63.6437 300.5200 14.54648824247822
O3B FM15                
1 43231U 18024A   22330.40311265 -.00000013  00000+0  00000+0 0  9993
2 43231   0.0503  12.0593 0003054 234.9185 112.9957  5.00116092 86054
O3B FM16                
1 43232U 18024B   22330.45652507 -.00000013  00000+0  00000+0 0  9996
2 43232   0.0490  16.5667 0003047 230.9395 112.4672  5.00115882 85966
O3B FM14                
1 43233U 18024C   22330.69613401 -.00000014  00000+0  00000+0 0  9994
2 43233   0.0480  17.9209 0002954 233.0500 109.0025  5.00115290 85991
O3B FM13                
1 43234U 18024D   22330.74966504 -.00000014  00000+0  00000+0 0  9996
2 43234   0.0600  10.3407 0003882 238.2980 111.3253  5.00115221 86111
O3B FM20                
1 44112U 19020A   22330.72282558 -.00000014  00000+0  00000+0 0  9997
2 44112   0.0517   8.4472 0003334 243.5136 108.0082  5.00115419 66602
O3B FM19                
1 44113U 19020B   22330.74967224 -.00000014  00000+0  00000+0 0  9990
2 44113   0.0730  16.8060 0002343 260.0559  83.1169  5.00115261 66488
O3B FM17                
1 44114U 19020C   22331.22989560 -.00000015  00000+0  00000+0 0  9993
2 44114   0.0321  11.1105 0003178 236.2953 112.5655  5.00115557 66714
O3B FM18                
1 44115U 19020D   22330.57671879 -.00000013  00000+0  00000+0 0  9990
2 44115   0.0521   8.4936 0002959 236.8275 114.6536  5.00115735 66682
SALSAT                  
1 46495U 20068K   22330.80483081  .00002511  00000+0  17918-3 0  9993
2 46495  97.7466 272.3579 0017810  87.1003 273.2261 15.05349935118603
